CUTE-1 (CO-55)          
1 27844U 03031E   26199.99981041  .00000124  00000+0  72664-4 0  9995
2 27844  98.6744 208.1594 0010865  92.9112 267.3310 14.24352932196203
CUBESAT XI-IV (CO-57)   
1 27848U 03031J   26200.00426191  .00000102  00000+0  63832-4 0  9997
2 27848  98.6776 207.8508 0010644 109.4157 250.8172 14.23635739195908
CUBESAT XI-V            
1 28895U 05043F   26199.92883852  .00000633  00000+0  10736-3 0  9997
2 28895  98.3021 356.2245 0015330 104.4100 255.8810 14.72707615106428
CUTE-1.7+APD II (CO-65) 
1 32785U 08021C   26200.26403866  .00001957  00000+0  12557-3 0  9995
2 32785  97.8299 182.3602 0006828 282.4955  77.5509 15.09720397990039
CANX-2                  
1 32790U 08021H   26200.25279445  .00001339  00000+0  96799-4 0  9999
2 32790  97.8658 180.6622 0008612 301.7516  58.2870 15.05817771989638
SEEDS II (CO-66)        
1 32791U 08021J   26199.98310008  .00009804  00000+0  30294-3 0  9990
2 32791  97.7533 199.4257 0003507 148.4527 211.6925 15.33744548992168
SWISSCUBE               
1 35932U 09051B   26200.18738039  .00000443  00000+0  97058-4 0  9999
2 35932  98.4003 108.6297 0008002 108.4098 251.7974 14.62534889893837
BEESAT-1                
1 35933U 09051C   26200.21356386  .00000364  00000+0  82911-4 0  9999
2 35933  98.3928 108.2244 0006325 119.4763 240.7069 14.61765362893865
ITUPSAT1                
1 35935U 09051E   26199.68445378  .00000317  00000+0  75415-4 0  9998
2 35935  98.4014 106.8454 0008288 133.4128 226.7763 14.60481463893335
TISAT 1                 
1 36799U 10035E   26199.78899867  .00011463  00000+0  36422-3 0  9996
2 36799  98.0714 149.1728 0004702 112.8367 247.3370 15.32815987872549
STRAND-1                
1 39090U 13009E   26200.29069826  .00000113  00000+0  52406-4 0  9991
2 39090  98.3938  19.7374 0009604 130.0819 230.1212 14.37180228701673
BRITE-AUSTRIA           
1 39091U 13009F   26200.24786334  .00000061  00000+0  35274-4 0  9993
2 39091  98.4012  18.8927 0010976 139.4138 220.7868 14.36553393701659
NEE-01 PEGASO           
1 39151U 13018B   26199.34771828  .00001462  00000+0  14351-3 0  9998
2 39151  98.1262 344.5370 0013603  65.0738 295.1893 14.93797792715353
POPACS 2                
1 39269U 13055E   26200.17454465  .00013740 -92985-6  22340-3 0  9998
2 39269  80.9910 107.5625 0414587  91.1196 273.7536 14.92128884667986
POPACS 3                
1 39270U 13055F   26199.30837120  .00007544  00000+0  17940-3 0  9999
2 39270  81.0005 195.4250 0548375 335.1698  22.3977 14.56710923643089
ZACUBE-1 (TSHEPISOSAT)  
1 39417U 13066B   26199.86699965  .00001274  00000+0  10187-3 0  9998
2 39417  97.8003 162.3585 0044064 143.4154 217.0094 15.01338468685486
WNISAT-1                
1 39423U 13066H   26199.98447061  .00000557  00000+0  10907-3 0  9999
2 39423  97.7241 346.8900 0164079 131.4519 230.0908 14.58124756671362
TRITON-1                
1 39427U 13066M   26200.23699454  .00000845  00000+0  10634-3 0  9996
2 39427  97.8218 109.3114 0090880 129.1001 231.8339 14.81802761678839
GOMX-1                  
1 39430U 13066Q   26200.25653964  .00000530  00000+0  86687-4 0  9991
2 39430  97.6463  38.6950 0127868 335.1393  24.3688 14.69547500674623
CUBEBUG-2 (LO-74)       
1 39440U 13066AA  26200.28076766  .00001916  00000+0  18028-3 0  9996
2 39440  97.8920 149.4029 0055561 281.5253  77.9731 14.93983583681781
NEE-02 KRYSAOR          
1 39441U 13066AB  26200.11145227  .00001036  00000+0  11858-3 0  9995
2 39441  97.8896 139.1025 0065084 326.3191  33.3896 14.86748144680945
FUNCUBE-1 (AO-73)       
1 39444U 13066AE  26200.20282202  .00004294  00000+0  26517-3 0  9990
2 39444  97.8299 172.3289 0037989  94.6504 265.9065 15.09850419684492
UWE-3                   
1 39446U 13066AG  26200.29678307  .00002143  00000+0  18642-3 0  9997
2 39446  97.8722 156.5949 0047645 210.4063 149.4394 14.97216256682388
BRITE-CA1 (TORONTO)     
1 40020U 14033L   26200.31108209  .00000524  00000+0  86289-4 0  9998
2 40020  97.9776 328.6539 0078789 173.0970 187.1343 14.72727256646944
DUCHIFAT-1              
1 40021U 14033M   26200.11833129  .00096187  00000+0  73779-3 0  9992
2 40021  98.0414 263.9486 0003298 230.7218 129.3750 15.71786235660754
NANOSATC-BR1            
1 40024U 14033Q   26200.08019032  .00009082  00000+0  29299-3 0  9996
2 40024  98.0705 235.3164 0005146  86.9633 273.2195 15.32403081658865
QB50P1                  
1 40025U 14033R   26200.30727439  .00004287  00000+0  21014-3 0  9998
2 40025  98.0971 213.7167 0010507 112.7163 247.5182 15.18701826657903
QB50P2                  
1 40032U 14033Y   26199.99365468  .00003768  00000+0  20258-3 0  9990
2 40032  98.0769 198.8653 0009218  73.2371 286.9870 15.15536576657487
PERSEUS-M2              
1 40037U 14033AD  26200.31181116  .00000012  00000+0  65709-5 0  9991
2 40037  97.9986 151.5121 0011203 185.8163 174.2929 14.95592307655587
PERSEUS-M1              
1 40039U 14033AF  26200.28217241  .00000505  00000+0  50742-4 0  9995
2 40039  97.9655 144.9450 0011190 182.9046 177.2112 14.95723171655432
